{"type": "FeatureCollection", "features": [ {"type": "Feature", "properties": {"norad_id": 33939, "name": "COSMOS 2251 DEB", "group": "cosmos-2251-debris", "lat": -63.55183758743737, "lon": -91.90778945546779, "alt_km": 573.0854198914258, "timestamp": "2025-12-26T08:37:54.972774+00:00", "meta": {"OBJECT_NAME": "COSMOS 2251 DEB", "OBJECT_ID": "1993-036EU", "EPOCH": "2025-12-25T13:55:45.725376", "MEAN_MOTION": 15.00770222, "ECCENTRICITY": 0.0005075, "INCLINATION": 74.006, "RA_OF_ASC_NODE": 54.4687, "ARG_OF_PERICENTER": 13.1312, "MEAN_ANOMALY": 347.0006, "EPHEMERIS_TYPE": 0, "CLASSIFICATION_TYPE": "U", "NORAD_CAT_ID": 33939, "ELEMENT_SET_NO": 999, "REV_AT_EPOCH": 88945, "BSTAR": 0.0030021, "MEAN_MOTION_DOT": 0.00038285, "MEAN_MOTION_DDOT": 0}, "tle": {"line1": "1 33939U 93036EU  25359.58039034  .00038285  00000+0  30021-2 0  9997", "line2": "2 33939  74.0060  54.4687 0005075  13.1312 347.0006 15.00770222889458"}}, "geometry": {"type": "Point", "coordinates": [-91.90778945546779, -63.55183758743737]}}, {"type": "Feature", "properties": {"norad_id": 33940, "name": "COSMOS 2251 DEB", "group": "cosmos-2251-debris", "lat": 32.3857563144578, "lon": -72.89538187794338, "alt_km": 689.7619025333433, "timestamp": "2025-12-26T08:37:54.972784+00:00", "meta": {"OBJECT_NAME": "COSMOS 2251 DEB", "OBJECT_ID": "1993-036EV", "EPOCH": "2025-12-25T19:30:40.226976", "MEAN_MOTION": 14.58920173, "ECCENTRICITY": 0.00106547, "INCLINATION": 74.0399, "RA_OF_ASC_NODE": 118.6034, "ARG_OF_PERICENTER": 199.4639, "MEAN_ANOMALY": 316.5363, "EPHEMERIS_TYPE": 0, "CLASSIFICATION_TYPE": "U", "NORAD_CAT_ID": 33940, "ELEMENT_SET_NO": 999, "REV_AT_EPOCH": 88784, "BSTAR": 0.001201335, "MEAN_MOTION_DOT": 5.611e-05, "MEAN_MOTION_DDOT": 0}, "tle": {"line1": "1 33940U 93036EV  25359.81296559  .00005611  00000+0  12013-2 0  9990", "line2": "2 33940  74.0399 118.6034 0010654 199.4639 316.5363 14.58920173887845"}}, "geometry": {"type": "Point", "coordinates": [-72.89538187794338, 32.3857563144578]}}, {"type": "Feature", "properties": {"norad_id": 33942, "name": "COSMOS 2251 DEB", "group": "cosmos-2251-debris", "lat": 39.784946605479114, "lon": -96.46378823304119, "alt_km": 756.8455340953478, "timestamp": "2025-12-26T08:37:54.972794+00:00", "meta": {"OBJECT_NAME": "COSMOS 2251 DEB", "OBJECT_ID": "1993-036EX", "EPOCH": "2025-12-26T02:18:42.608736", "MEAN_MOTION": 14.38005897, "ECCENTRICITY": 0.0020843, "INCLINATION": 74.036, "RA_OF_ASC_NODE": 250.2308, "ARG_OF_PERICENTER": 331.1088, "MEAN_ANOMALY": 147.7723, "EPHEMERIS_TYPE": 0, "CLASSIFICATION_TYPE": "U", "NORAD_CAT_ID": 33942, "ELEMENT_SET_NO": 999, "REV_AT_EPOCH": 88326, "BSTAR": 0.00018353, "MEAN_MOTION_DOT": 5.3e-06, "MEAN_MOTION_DDOT": 0}, "tle": {"line1": "1 33942U 93036EX  25360.09632649  .00000530  00000+0  18353-3 0  9997", "line2": "2 33942  74.0360 250.2308 0020843 331.1088 147.7723 14.38005897883267"}}, "geometry": {"type": "Point", "coordinates": [-96.46378823304119, 39.784946605479114]}}, {"type": "Feature", "properties": {"norad_id": 33944, "name": "COSMOS 2251 DEB", "group": "cosmos-2251-debris", "lat": -59.66197725428971, "lon": 133.140802350193, "alt_km": 831.7213519466422, "timestamp": "2025-12-26T08:37:54.972805+00:00", "meta": {"OBJECT_NAME": "COSMOS 2251 DEB", "OBJECT_ID": "1993-036EZ", "EPOCH": "2025-12-26T02:59:11.410368", "MEAN_MOTION": 14.37373189, "ECCENTRICITY": 0.0112783, "INCLINATION": 74.0407, "RA_OF_ASC_NODE": 284.301, "ARG_OF_PERICENTER": 20.5097, "MEAN_ANOMALY": 87.4933, "EPHEMERIS_TYPE": 0, "CLASSIFICATION_TYPE": "U", "NORAD_CAT_ID": 33944, "ELEMENT_SET_NO": 999, "REV_AT_EPOCH": 88220, "BSTAR": 0.00035962, "MEAN_MOTION_DOT": 1.128e-05, "MEAN_MOTION_DDOT": 0}, "tle": {"line1": "1 33944U 93036EZ  25360.12443762  .00001128  00000+0  35962-3 0  9998", "line2": "2 33944  74.0407 284.3010 0112783  20.5097  87.4933 14.37373189882200"}}, "geometry": {"type": "Point", "coordinates": [133.140802350193, -59.66197725428971]}}, {"type": "Feature", "properties": {"norad_id": 33945, "name": "COSMOS 2251 DEB", "group": "cosmos-2251-debris", "lat": -72.39169634225372, "lon": 165.76793916998506, "alt_km": 786.5134030672662, "timestamp": "2025-12-26T08:37:54.972815+00:00", "meta": {"OBJECT_NAME": "COSMOS 2251 DEB", "OBJECT_ID": "1993-036FA", "EPOCH": "2025-12-26T02:23:25.141056", "MEAN_MOTION": 14.34611106, "ECCENTRICITY": 0.002249, "INCLINATION": 74.0303, "RA_OF_ASC_NODE": 281.7874, "ARG_OF_PERICENTER": 4.6382, "MEAN_ANOMALY": 355.4974, "EPHEMERIS_TYPE": 0, "CLASSIFICATION_TYPE": "U", "NORAD_CAT_ID": 33945, "ELEMENT_SET_NO": 999, "REV_AT_EPOCH": 88207, "BSTAR": 0.00013488, "MEAN_MOTION_DOT": 3.56e-06, "MEAN_MOTION_DDOT": 0}, "tle": {"line1": "1 33945U 93036FA  25360.09959654  .00000356  00000+0  13488-3 0  9998", "line2": "2 33945  74.0303 281.7874 0022490   4.6382 355.4974 14.34611106882079"}}, "geometry": {"type": "Point", "coordinates": [165.76793916998506, -72.39169634225372]}}, {"type": "Feature", "properties": {"norad_id": 33948, "name": "COSMOS 2251 DEB", "group": "cosmos-2251-debris", "lat": 16.957113713654536, "lon": 95.13794200658425, "alt_km": 789.4771524631869, "timestamp": "2025-12-26T08:37:54.972825+00:00", "meta": {"OBJECT_NAME": "COSMOS 2251 DEB", "OBJECT_ID": "1993-036FD", "EPOCH": "2025-12-25T20:10:19.693344", "MEAN_MOTION": 14.35644343, "ECCENTRICITY": 0.00233076, "INCLINATION": 74.036, "RA_OF_ASC_NODE": 281.0973, "ARG_OF_PERICENTER": 353.8764, "MEAN_ANOMALY": 6.21, "EPHEMERIS_TYPE": 0, "CLASSIFICATION_TYPE": "U", "NORAD_CAT_ID": 33948, "ELEMENT_SET_NO": 999, "REV_AT_EPOCH": 88211, "BSTAR": 0.00020172886, "MEAN_MOTION_DOT": 5.57e-06, "MEAN_MOTION_DDOT": 0}, "tle": {"line1": "1 33948U 93036FD  25359.84050571  .00000557  00000+0  20173-3 0  9994", "line2": "2 33948  74.0360 281.0973 0023307 353.8764   6.2100 14.35644343882116"}}, "geometry": {"type": "Point", "coordinates": [95.13794200658425, 16.957113713654536]}}, {"type": "Feature", "properties": {"norad_id": 33971, "name": "COSMOS 2251 DEB", "group": "cosmos-2251-debris", "lat": 65.40187096818273, "lon": -92.69817377395132, "alt_km": 755.9117965842643, "timestamp": "2025-12-26T08:37:54.972835+00:00", "meta": {"OBJECT_NAME": "COSMOS 2251 DEB", "OBJECT_ID": "1993-036FE", "EPOCH": "2025-12-26T02:20:11.631840", "MEAN_MOTION": 14.39746881, "ECCENTRICITY": 0.0019034, "INCLINATION": 74.0237, "RA_OF_ASC_NODE": 229.0464, "ARG_OF_PERICENTER": 327.4226, "MEAN_ANOMALY": 184.4406, "EPHEMERIS_TYPE": 0, "CLASSIFICATION_TYPE": "U", "NORAD_CAT_ID": 33971, "ELEMENT_SET_NO": 999, "REV_AT_EPOCH": 88331, "BSTAR": 0.00022834, "MEAN_MOTION_DOT": 6.9e-06, "MEAN_MOTION_DDOT": 0}, "tle": {"line1": "1 33971U 93036FE  25360.09735685  .00000690  00000+0  22834-3 0  9999", "line2": "2 33971  74.0237 229.0464 0019034 327.4226 184.4406 14.39746881883319"}}, "geometry": {"type": "Point", "coordinates": [-92.69817377395132, 65.40187096818273]}}, {"type": "Feature", "properties": {"norad_id": 33972, "name": "COSMOS 2251 DEB", "group": "cosmos-2251-debris", "lat": -17.510283290539558, "lon": -9.221793271064017, "alt_km": 833.978557432727, "timestamp": "2025-12-26T08:37:54.972845+00:00", "meta": {"OBJECT_NAME": "COSMOS 2251 DEB", "OBJECT_ID": "1993-036FF", "EPOCH": "2025-12-22T11:54:25.691616", "MEAN_MOTION": 14.36292058, "ECCENTRICITY": 0.01238157, "INCLINATION": 73.9934, "RA_OF_ASC_NODE": 172.696, "ARG_OF_PERICENTER": 338.2339, "MEAN_ANOMALY": 51.7728, "EPHEMERIS_TYPE": 0, "CLASSIFICATION_TYPE": "U", "NORAD_CAT_ID": 33972, "ELEMENT_SET_NO": 999, "REV_AT_EPOCH": 87214, "BSTAR": 0.0012268858, "MEAN_MOTION_DOT": 3.888e-05, "MEAN_MOTION_DDOT": 0}, "tle": {"line1": "1 33972U 93036FF  25356.49613069  .00003888  00000+0  12269-2 0  9992", "line2": "2 33972  73.9934 172.6960 0123815 338.2339  51.7728 14.36292058872145"}}, "geometry": {"type": "Point", "coordinates": [-9.221793271064017, -17.510283290539558]}}, {"type": "Feature", "properties": {"norad_id": 33973, "name": "COSMOS 2251 DEB", "group": "cosmos-2251-debris", "lat": 35.49561396972229, "lon": 89.2649694523995, "alt_km": 765.1253779899389, "timestamp": "2025-12-26T08:37:54.972855+00:00", "meta": {"OBJECT_NAME": "COSMOS 2251 DEB", "OBJECT_ID": "1993-036FG", "EPOCH": "2025-12-25T16:24:44.444736", "MEAN_MOTION": 14.45404582, "ECCENTRICITY": 0.00473739, "INCLINATION": 74.0087, "RA_OF_ASC_NODE": 78.7251, "ARG_OF_PERICENTER": 254.7784, "MEAN_ANOMALY": 226.9895, "EPHEMERIS_TYPE": 0, "CLASSIFICATION_TYPE": "U", "NORAD_CAT_ID": 33973, "ELEMENT_SET_NO": 999, "REV_AT_EPOCH": 88787, "BSTAR": 0.0001550993, "MEAN_MOTION_DOT": 5.25e-06, "MEAN_MOTION_DDOT": 0}, "tle": {"line1": "1 33973U 93036FG  25359.68384774  .00000525  00000+0  15510-3 0  9993", "line2": "2 33973  74.0087  78.7251 0047373 254.7784 226.9895 14.45404582887870"}}, "geometry": {"type": "Point", "coordinates": [89.2649694523995, 35.49561396972229]}}, {"type": "Feature", "properties": {"norad_id": 33975, "name": "COSMOS 2251 DEB", "group": "cosmos-2251-debris", "lat": -53.66423388410881, "lon": 37.23305964792039, "alt_km": 947.6244839044884, "timestamp": "2025-12-26T08:37:54.972865+00:00", "meta": {"OBJECT_NAME": "COSMOS 2251 DEB", "OBJECT_ID": "1993-036FJ", "EPOCH": "2025-12-26T03:46:06.585024", "MEAN_MOTION": 14.00550079, "ECCENTRICITY": 0.0190784, "INCLINATION": 73.8014, "RA_OF_ASC_NODE": 60.8675, "ARG_OF_PERICENTER": 191.679, "MEAN_ANOMALY": 167.9889, "EPHEMERIS_TYPE": 0, "CLASSIFICATION_TYPE": "U", "NORAD_CAT_ID": 33975, "ELEMENT_SET_NO": 999, "REV_AT_EPOCH": 86017, "BSTAR": 0.00046682, "MEAN_MOTION_DOT": 7.86e-06, "MEAN_MOTION_DDOT": 0}, "tle": {"line1": "1 33975U 93036FJ  25360.15702066  .00000786  00000+0  46682-3 0  9990", "line2": "2 33975  73.8014  60.8675 0190784 191.6790 167.9889 14.00550079860177"}}, "geometry": {"type": "Point", "coordinates": [37.23305964792039, -53.66423388410881]}}]}